COSMOS 2433 (720)       
1 32275C 07052A   20306.99979167 -.00000001  00000-0  00000-0 0  3065
2 32275  66.0169  24.3473 0004570 231.8016 197.8541  2.13104473    10
COSMOS 2432 (719)       
1 32276C 07052B   20306.99979167 -.00000001  00000-0  00000-0 0  3066
2 32276  66.0296  24.4384 0009241 317.8971  61.6040  2.13103692    13
COSMOS 2434 (721)       
1 32393C 07065A   20306.99979167  .00000000  00000-0  00000-0 0  3068
2 32393  64.5299 261.7014 0001065  96.2560 221.2365  2.13103128    11
COSMOS 2436 (723)       
1 32395C 07065C   19331.99979167 -.00000004  00000-0  00000-0 0  3319
2 32395  64.6628 273.4180 0015428 335.5981 236.1653  2.13280743    12
COSMOS 2456 (730)       
1 36111C 09070A   20306.99979167  .00000000  00000-0  00000-0 0  3068
2 36111  64.2426 141.3810 0002366 353.8073 137.2236  2.13103083    18
COSMOS 2457 (733)       
1 36112C 09070B   19331.99979167  .00000002  00000-0  00000-0 0  3315
2 36112  64.1929 152.9203 0006907 146.4578 270.9332  2.13101641    11
COSMOS 2459 (731)       
1 36400C 10007A   20306.99979167 -.00000001  00000-0  00000-0 0  3063
2 36400  65.9129  23.2665 0017948   4.3396 283.5714  2.13103807    11
COSMOS 2460 (732)       
1 36402C 10007C   20296.99979167 -.00000000  00000-0  00000-0 0  2960
2 36402  65.8984  23.5599 0002107 189.9497 289.3261  2.13101234    16
COSMOS 2464 (736)       
1 37139C 10041C   20306.99979167  .00000000  00000-0  00000-0 0  3069
2 37139  64.1295 261.0719 0026860   6.5990 173.4771  2.13100828    15
COSMOS 2476 (744)       
1 37867C 11064A   20306.99979167  .00000000  00000-0  00000-0 0  3063
2 37867  64.5401 142.5045 0018313 232.1542 159.2413  2.13101999    10
COSMOS 2477 (745)       
1 37868C 11064B   20306.99979167  .00000000  00000-0  00000-0 0  3064
2 37868  64.5482 142.5626 0015789 232.3639 337.4845  2.13102008    19
COSMOS 2475 (743)       
1 37869C 11064C   20306.99979167  .00000000  00000-0  00000-0 0  3065
2 37869  64.5556 142.5652 0019157 256.9633 270.4159  2.13102249    11
COSMOS 2485 (747)       
1 39155C 13019A   20306.99979167  .00000000  00000-0  00000-0 0  3067
2 39155  64.7072 142.8038 0018959 227.5470 208.4062  2.13102088    14
COSMOS 2492 (754)       
1 39620C 14012A   20306.99979167 -.00000001  00000-0  00000-0 0  3060
2 39620  65.7891  22.9908 0012523 315.9913 154.9210  2.13103416    16
COSMOS 2500 (755)       
1 40001C 14032A   20306.99979167 -.00000001  00000-0  00000-0 0  3067
2 40001  65.7297  22.8960 0008367 206.2667 124.8436  2.13102647    18
COSMOS 2501 (702)       
1 40315C 14075A   20306.99979167  .00000000  00000-0  00000-0 0  3060
2 40315  63.8443 261.9651 0017348 214.2434 282.4360  2.13101420    16
COSMOS 2514 (751)       
1 41330C 16008A   20306.99979167 -.00000001  00000-0  00000-0 0  3068
2 41330  65.5319  22.7344 0012033 213.5350 300.2805  2.13102970    16
COSMOS 2516 (753)       
1 41554C 16032A   20306.99979167  .00000000  00000-0  00000-0 0  3061
2 41554  64.0682 262.0750 0013879 224.1435 180.7331  2.13101895    12
COSMOS 2522 (752)       
1 42939C 17055A   20306.99979167  .00000000  00000-0  00000-0 0  3065
2 42939  64.3017 262.2956 0009075 252.3899  19.0861  2.13102191    17
COSMOS 2527 (756)       
1 43508C 18053A   20306.99979167  .00000000  00000-0  00000-0 0  3067
2 43508  64.8716 142.6801 0006356 213.4022  90.0226  2.13102770    13
COSMOS 2529 (757)       
1 43687C 18086A   20306.99979167  .00000000  00000-0  00000-0 0  3061
2 43687  64.5156 262.4522 0011639 271.8385 315.2355  2.13102243    17
COSMOS 2534 (758)       
1 44299C 19030A   20306.99979167  .00000000  00000-0  00000-0 0  3061
2 44299  64.5859 262.2819 0014587 287.9345  74.1189  2.13102025    17
COSMOS 2544 (759)       
1 44850C 19088A   20306.99979167  .00000000  00000-0  00000-0 0  3067
2 44850  64.8560 142.5451 0009309 259.5014  87.8785  2.13102443    15
COSMOS 2545 (760)       
1 45358C 20018A   19320.99979167  .00000001  00000-0  00000-0 0  3207
2 45358  65.8070  35.0079 0005134  75.6998 123.1059  2.13101688    16
